NORAD_CAT_ID,OBJECT_NAME,OBJECT_TYPE,EPOCH,MEAN_MOTION,ECCENTRICITY,INCLINATION,RA_OF_ASC_NODE,ARG_OF_PERICENTER,MEAN_ANOMALY,BSTAR,MEAN_MOTION_DOT,MEAN_MOTION_DDOT,TLE_LINE0,TLE_LINE1,TLE_LINE2,SEMIMAJOR_AXIS,PERIOD,APOGEE,PERIGEE,DECAYED
55647.0,STARLINK-5510,PAYLOAD,2024-06-21 19:21:35,14.98331964,0.0003032,70.0003,322.3887,267.1274,92.9538,5.9528e-05,6.17e-06,0.0,0 STARLINK-5510,1 55647U 23021V   24173.80665875  .00000617  00000-0  59528-4 0  9994,2 55647  70.0003 322.3887 0003032 267.1274  92.9538 14.98331964 75049,6950.187,96.107,574.159,569.945,0.0
55647.0,STARLINK-5510,PAYLOAD,2024-06-22 12:59:04,14.98326332,0.0003034,70.0004,320.5371,264.9663,95.1149,1.002e-05,2.7e-07,0.0,0 STARLINK-5510,1 55647U 23021V   24174.54102398  .00000027  00000-0  10020-4 0  9991,2 55647  70.0004 320.5371 0003034 264.9663  95.1149 14.98326332 74851,6950.204,96.107,574.178,569.961,0.0
55647.0,STARLINK-5510,PAYLOAD,2024-06-22 14:35:12,14.98325912,0.0003041,70.0004,320.3688,264.9583,95.1229,6.1591e-06,-2e-07,0.0,0 STARLINK-5510,1 55647U 23021V   24174.60778449 -.00000020  00000-0  61591-5 0  9998,2 55647  70.0004 320.3688 0003041 264.9583  95.1229 14.98325912 75166,6950.206,96.107,574.184,569.957,0.0
55647.0,STARLINK-5510,PAYLOAD,2024-06-22 19:23:36,14.98326977,0.0003061,70.0003,319.8631,264.7364,95.3446,8.9152e-06,1.3e-07,0.0,0 STARLINK-5510,1 55647U 23021V   24174.80806399  .00000013  00000-0  89152-5 0  9990,2 55647  70.0003 319.8631 0003061 264.7364  95.3446 14.98326977 75191,6950.202,96.107,574.195,569.94,0.0
55647.0,STARLINK-5510,PAYLOAD,2024-06-23 13:01:04,14.98334023,0.0003178,70.0001,318.0111,266.0828,93.9968,1.7831e-05,1.2e-06,0.0,0 STARLINK-5510,1 55647U 23021V   24175.54241851  .00000120  00000-0  17831-4 0  9991,2 55647  70.0001 318.0111 0003178 266.0828  93.9968 14.98334023 75006,6950.18,96.107,574.254,569.837,0.0
55647.0,STARLINK-5510,PAYLOAD,2024-06-23 14:37:13,14.9833393,0.0003183,70.0001,317.8428,266.1339,93.9456,1.6661e-05,1.06e-06,0.0,0 STARLINK-5510,1 55647U 23021V   24175.60917847  .00000106  00000-0  16661-4 0  9997,2 55647  70.0001 317.8428 0003183 266.1339  93.9456 14.98333930 75310,6950.181,96.107,574.258,569.833,0.0
55647.0,STARLINK-5510,PAYLOAD,2024-06-23 19:25:36,14.98337386,0.0003148,70.0002,317.3378,265.7487,94.3313,5.6884e-05,5.86e-06,0.0,0 STARLINK-5510,1 55647U 23021V   24175.80945451  .00000586  00000-0  56884-4 0  9994,2 55647  70.0002 317.3378 0003148 265.7487  94.3313 14.98337386 75349,6950.17,96.107,574.223,569.847,0.0
55647.0,STARLINK-5510,PAYLOAD,2024-06-24 13:03:05,14.98330496,0.00032,70.0001,315.4861,266.2137,93.8656,4.3126e-05,4.22e-06,0.0,0 STARLINK-5510,1 55647U 23021V   24176.54381787  .00000422  00000-0  43126-4 0  9996,2 55647  70.0001 315.4861 0003200 266.2137  93.8656 14.98330496 75159,6950.191,96.107,574.28,569.832,0.0
55647.0,STARLINK-5510,PAYLOAD,2024-06-24 14:39:13,14.98330288,0.0003207,70.0001,315.3177,266.1969,93.8824,3.9492e-05,3.78e-06,0.0,0 STARLINK-5510,1 55647U 23021V   24176.61057807  .00000378  00000-0  39492-4 0  9998,2 55647  70.0001 315.3177 0003207 266.1969  93.8824 14.98330288 75467,6950.192,96.107,574.286,569.828,0.0
55647.0,STARLINK-5510,PAYLOAD,2024-06-24 19:27:37,14.98332493,0.0003195,70.0002,314.8129,266.1345,93.9449,6.0802e-05,6.33e-06,0.0,0 STARLINK-5510,1 55647U 23021V   24176.81085589  .00000633  00000-0  60802-4 0  9991,2 55647  70.0002 314.8129 0003195 266.1345  93.9449 14.98332493 75490,6950.185,96.107,574.271,569.83,0.0
55647.0,STARLINK-5510,PAYLOAD,2024-06-25 13:05:06,14.98330922,0.0003023,70.0006,312.9618,261.0079,99.0738,-1.9018e-05,-3.2e-06,0.0,0 STARLINK-5510,1 55647U 23021V   24177.54521816 -.00000320  00000-0 -19018-4 0  9998,2 55647  70.0006 312.9618 0003023 261.0079  99.0738 14.98330922 75307,6950.19,96.107,574.156,569.954,0.0
55647.0,STARLINK-5510,PAYLOAD,2024-06-25 14:41:14,14.9833107,0.0003017,70.0007,312.7936,261.5742,98.5075,-1.5787e-05,-2.81e-06,0.0,0 STARLINK-5510,1 55647U 23021V   24177.61197798 -.00000281  00000-0 -15787-4 0  9999,2 55647  70.0007 312.7936 0003017 261.5742  98.5075 14.98331070 75611,6950.19,96.107,574.151,569.958,0.0
55647.0,STARLINK-5510,PAYLOAD,2024-06-25 19:29:38,14.98332354,0.0003006,70.0008,312.2888,262.3177,97.7641,7.0815e-07,-8.5e-07,0.0,0 STARLINK-5510,1 55647U 23021V   24177.81225654 -.00000085  00000-0  70815-6 0  9990,2 55647  70.0008 312.2888 0003006 262.3177  97.7641 14.98332354 75641,6950.186,96.107,574.14,569.961,0.0
55647.0,STARLINK-5510,PAYLOAD,2024-06-26 11:30:59,14.98330467,0.0002985,70.0009,310.6061,261.3431,98.739,3.6052e-05,3.37e-06,0.0,0 STARLINK-5510,1 55647U 23021V   24178.47985555  .00000337  00000-0  36052-4 0  9998,2 55647  70.0009 310.6061 0002985 261.3431  98.7390 14.98330467 75740,6950.191,96.107,574.131,569.982,0.0
55647.0,STARLINK-5510,PAYLOAD,2024-06-27 13:09:08,14.98328236,0.0003205,70.0005,307.9136,260.9491,99.1306,-1.1082e-05,-2.25e-06,0.0,0 STARLINK-5510,1 55647U 23021V   24179.54801887 -.00000225  00000-0 -11082-4 0  9996,2 55647  70.0005 307.9136 0003205 260.9491  99.1306 14.98328236 75603,6950.198,96.107,574.291,569.836,0.0
55647.0,STARLINK-5510,PAYLOAD,2024-06-27 17:57:33,14.98326568,0.0003213,70.0004,307.4076,266.314,93.7651,-2.3287e-05,-3.71e-06,0.0,0 STARLINK-5510,1 55647U 23021V   24179.74830092 -.00000371  00000-0 -23287-4 0  9990,2 55647  70.0004 307.4076 0003213 266.3140  93.7651 14.98326568 75935,6950.204,96.107,574.302,569.835,0.0
55647.0,STARLINK-5510,PAYLOAD,2024-06-28 13:11:09,14.98333296,0.0003365,69.9999,305.3871,266.992,93.0854,0.00010772,1.193e-05,0.0,0 STARLINK-5510,1 55647U 23021V   24180.54941325  .00001193  00000-0  10772-3 0  9997,2 55647  69.9999 305.3871 0003365 266.9920  93.0854 14.98333296 75759,6950.183,96.107,574.386,569.709,0.0
55647.0,STARLINK-5510,PAYLOAD,2024-06-28 14:47:17,14.98338744,0.0003465,69.9996,305.2183,267.5638,92.5124,0.00012717,1.425e-05,0.0,0 STARLINK-5510,1 55647U 23021V   24180.61616904  .00001425  00000-0  12717-3 0  9996,2 55647  69.9996 305.2183 0003465 267.5638  92.5124 14.98338744 76067,6950.166,96.106,574.439,569.623,0.0
55647.0,STARLINK-5510,PAYLOAD,2024-06-28 17:59:32,14.98345569,0.0003319,69.9999,304.8825,268.1309,91.947,0.00019644,2.253e-05,0.0,0 STARLINK-5510,1 55647U 23021V   24180.74968249  .00002253  00000-0  19644-3 0  9998,2 55647  69.9999 304.8825 0003319 268.1309  91.9470 14.98345569 75786,6950.145,96.106,574.316,569.703,0.0
55647.0,STARLINK-5510,PAYLOAD,2024-06-29 02:00:13,14.9833882,0.000347,69.9993,304.0382,266.8155,93.2607,0.00017813,2.034e-05,0.0,0 STARLINK-5510,1 55647U 23021V   24181.08348437  .00002034  00000-0  17813-3 0  9990,2 55647  69.9993 304.0382 0003470 266.8155  93.2607 14.98338820 75837,6950.166,96.106,574.442,569.619,0.0
55647.0,STARLINK-5510,PAYLOAD,2024-06-29 13:13:10,14.98326666,0.0003032,69.9995,302.8597,264.7674,95.3139,2.1676e-05,1.66e-06,0.0,0 STARLINK-5510,1 55647U 23021V   24181.55081748  .00000166  00000-0  21676-4 0  9998,2 55647  69.9995 302.8597 0003032 264.7674  95.3139 14.98326666 75906,6950.203,96.107,574.176,569.961,0.0
55647.0,STARLINK-5510,PAYLOAD,2024-06-29 14:49:18,14.98327514,0.0002968,69.9996,302.6923,267.5006,92.5813,4.8286e-05,4.83e-06,0.0,0 STARLINK-5510,1 55647U 23021V   24181.61757680  .00000483  00000-0  48286-4 0  9998,2 55647  69.9996 302.6923 0002968 267.5006  92.5813 14.98327514 76211,6950.201,96.107,574.128,570.003,0.0
55647.0,STARLINK-5510,PAYLOAD,2024-06-29 18:01:34,14.98329408,0.0003321,69.9994,302.357,269.1477,90.9301,5.8903e-05,6.1e-06,0.0,0 STARLINK-5510,1 55647U 23021V   24181.75109530  .00000610  00000-0  58903-4 0  9997,2 55647  69.9994 302.3570 0003321 269.1477  90.9301 14.98329408 76238,6950.195,96.107,574.368,569.752,0.0
55647.0,STARLINK-5510,PAYLOAD,2024-06-30 14:51:19,14.9833912,0.0003166,69.9996,300.1678,269.8403,90.2394,-3.9778e-05,-5.68e-06,0.0,0 STARLINK-5510,1 55647U 23021V   24182.61897160 -.00000568  00000-0 -39778-4 0  9999,2 55647  69.9996 300.1678 0003166 269.8403  90.2394 14.98339120 76369,6950.165,96.106,574.23,569.829,0.0
55647.0,STARLINK-5510,PAYLOAD,2024-06-30 18:03:35,14.9833753,0.0003226,69.9999,299.8312,271.6359,88.4431,-2.1153e-05,-3.45e-06,0.0,0 STARLINK-5510,1 55647U 23021V   24182.75249201 -.00000345  00000-0 -21153-4 0  9992,2 55647  69.9999 299.8312 0003226 271.6359  88.4431 14.98337530 76082,6950.17,96.107,574.277,569.792,0.0
55647.0,STARLINK-5510,PAYLOAD,2024-07-01 11:41:04,14.98323258,0.0003017,70.0002,297.9802,272.2391,87.8423,8.2147e-05,8.87e-06,0.0,0 STARLINK-5510,1 55647U 23021V   24183.48685858  .00000887  00000-0  82147-4 0  9994,2 55647  70.0002 297.9802 0003017 272.2391  87.8423 14.98323258 76192,6950.214,96.107,574.176,569.982,0.0
55647.0,STARLINK-5510,PAYLOAD,2024-07-01 14:53:20,14.98325044,0.0002954,70.0004,297.6437,274.4437,85.6385,9.8493e-05,1.082e-05,0.0,0 STARLINK-5510,1 55647U 23021V   24183.62037775  .00001082  00000-0  98493-4 0  9998,2 55647  70.0004 297.6437 0002954 274.4437  85.6385 14.98325044 76513,6950.208,96.107,574.126,570.02,0.0
55647.0,STARLINK-5510,PAYLOAD,2024-07-01 18:05:36,14.9832937,0.0002988,70.0003,297.3071,272.725,87.3567,0.00011265,1.251e-05,0.0,0 STARLINK-5510,1 55647U 23021V   24183.75389469  .00001251  00000-0  11265-3 0  9991,2 55647  70.0003 297.3071 0002988 272.7250  87.3567 14.98329370 76533,6950.195,96.107,574.137,569.983,0.0
55647.0,STARLINK-5510,PAYLOAD,2024-07-02 13:19:13,14.98320552,0.0003099,70.0007,295.2887,273.5076,86.5728,0.00013328,1.497e-05,0.0,0 STARLINK-5510,1 55647U 23021V   24184.55502113  .00001497  00000-0  13328-3 0  9997,2 55647  70.0007 295.2887 0003099 273.5076  86.5728 14.98320552 76351,6950.222,96.108,574.241,569.933,0.0
55647.0,STARLINK-5510,PAYLOAD,2024-07-02 14:55:20,14.98384632,0.000314,70.0007,295.1203,266.319,93.761,-0.0010035,-0.00012063,0.0,0 STARLINK-5510,1 55647U 23021V   24184.62176543 -.00012063  00000-0 -10035-2 0  9993,2 55647  70.0007 295.1203 0003140 266.3190  93.7610 14.98384632 76669,6950.024,96.103,574.071,569.707,0.0
